{"type": "FeatureCollection", "features": [ {"type": "Feature", "properties": {"norad_id": 57401, "name": "TIANMU-1 09", "group": "weather", "lat": 73.95463422098892, "lon": -127.00895478008961, "alt_km": 470.57362163853577, "timestamp": "2025-12-03T04:52:29.284340+00:00", "meta": {"OBJECT_NAME": "TIANMU-1 09", "OBJECT_ID": "2023-101C", "EPOCH": "2025-12-02T20:33:39.515904", "MEAN_MOTION": 15.27849849, "ECCENTRICITY": 0.0006733, "INCLINATION": 97.2843, "RA_OF_ASC_NODE": 26.2445, "ARG_OF_PERICENTER": 110.708, "MEAN_ANOMALY": 249.4881, "EPHEMERIS_TYPE": 0, "CLASSIFICATION_TYPE": "U", "NORAD_CAT_ID": 57401, "ELEMENT_SET_NO": 999, "REV_AT_EPOCH": 13164, "BSTAR": 0.00036327, "MEAN_MOTION_DOT": 9.815e-05, "MEAN_MOTION_DDOT": 0}, "tle": {"line1": "1 57401U 23101C   25336.85670736  .00009815  00000+0  36327-3 0  9991", "line2": "2 57401  97.2843  26.2445 0006733 110.7080 249.4881 15.27849849131649"}}, "geometry": {"type": "Point", "coordinates": [-127.00895478008961, 73.95463422098892]}}, {"type": "Feature", "properties": {"norad_id": 57402, "name": "TIANMU-1 10", "group": "weather", "lat": -80.20147988194802, "lon": 75.2804806422748, "alt_km": 495.2484999339031, "timestamp": "2025-12-03T04:52:29.284352+00:00", "meta": {"OBJECT_NAME": "TIANMU-1 10", "OBJECT_ID": "2023-101D", "EPOCH": "2025-12-02T21:22:51.013344", "MEAN_MOTION": 15.2784164, "ECCENTRICITY": 0.0008473, "INCLINATION": 97.2923, "RA_OF_ASC_NODE": 27.1173, "ARG_OF_PERICENTER": 111.924, "MEAN_ANOMALY": 248.2901, "EPHEMERIS_TYPE": 0, "CLASSIFICATION_TYPE": "U", "NORAD_CAT_ID": 57402, "ELEMENT_SET_NO": 999, "REV_AT_EPOCH": 13164, "BSTAR": 0.00039779, "MEAN_MOTION_DOT": 0.00010757, "MEAN_MOTION_DDOT": 0}, "tle": {"line1": "1 57402U 23101D   25336.89086821  .00010757  00000+0  39779-3 0  9993", "line2": "2 57402  97.2923  27.1173 0008473 111.9240 248.2901 15.27841640131642"}}, "geometry": {"type": "Point", "coordinates": [75.2804806422748, -80.20147988194802]}}, {"type": "Feature", "properties": {"norad_id": 57490, "name": "FENGYUN 3F", "group": "weather", "lat": -76.60596053814255, "lon": 85.72139318709178, "alt_km": 833.5188311472984, "timestamp": "2025-12-03T04:52:29.284365+00:00", "meta": {"OBJECT_NAME": "FENGYUN 3F", "OBJECT_ID": "2023-111A", "EPOCH": "2025-12-02T20:47:38.344128", "MEAN_MOTION": 14.19889236, "ECCENTRICITY": 7e-05, "INCLINATION": 98.7096, "RA_OF_ASC_NODE": 45.3186, "ARG_OF_PERICENTER": 85.1009, "MEAN_ANOMALY": 275.0247, "EPHEMERIS_TYPE": 0, "CLASSIFICATION_TYPE": "U", "NORAD_CAT_ID": 57490, "ELEMENT_SET_NO": 999, "REV_AT_EPOCH": 12100, "BSTAR": 8.309e-05, "MEAN_MOTION_DOT": 1.33e-06, "MEAN_MOTION_DDOT": 0}, "tle": {"line1": "1 57490U 23111A   25336.86641602  .00000133  00000+0  83090-4 0  9995", "line2": "2 57490  98.7096  45.3186 0000700  85.1009 275.0247 14.19889236121005"}}, "geometry": {"type": "Point", "coordinates": [85.72139318709178, -76.60596053814255]}}, {"type": "Feature", "properties": {"norad_id": 58584, "name": "ARKTIKA-M 2", "group": "weather", "lat": 54.88684968214053, "lon": -49.994793788853904, "alt_km": 30560.164451813846, "timestamp": "2025-12-03T04:52:29.284378+00:00", "meta": {"OBJECT_NAME": "ARKTIKA-M 2", "OBJECT_ID": "2023-198A", "EPOCH": "2025-12-01T08:43:04.634112", "MEAN_MOTION": 2.00605427, "ECCENTRICITY": 0.68640288, "INCLINATION": 63.2218, "RA_OF_ASC_NODE": 176.1298, "ARG_OF_PERICENTER": 268.1507, "MEAN_ANOMALY": 18.8441, "EPHEMERIS_TYPE": 0, "CLASSIFICATION_TYPE": "U", "NORAD_CAT_ID": 58584, "ELEMENT_SET_NO": 999, "REV_AT_EPOCH": 1435, "BSTAR": 0, "MEAN_MOTION_DOT": 2.37e-06, "MEAN_MOTION_DDOT": 0}, "tle": {"line1": "1 58584U 23198A   25335.36324808  .00000237  00000+0  00000+0 0  9995", "line2": "2 58584  63.2218 176.1298 6864028 268.1507  18.8441  2.00605427 14356"}}, "geometry": {"type": "Point", "coordinates": [-49.994793788853904, 54.88684968214053]}}, {"type": "Feature", "properties": {"norad_id": 58645, "name": "TIANMU-1 11", "group": "weather", "lat": -33.809016992970356, "lon": 172.0289410307554, "alt_km": 503.05637797230065, "timestamp": "2025-12-03T04:52:29.284390+00:00", "meta": {"OBJECT_NAME": "TIANMU-1 11", "OBJECT_ID": "2023-205A", "EPOCH": "2025-12-02T20:03:41.058432", "MEAN_MOTION": 15.24406682, "ECCENTRICITY": 0.0008912, "INCLINATION": 97.3614, "RA_OF_ASC_NODE": 356.6349, "ARG_OF_PERICENTER": 349.1041, "MEAN_ANOMALY": 11.0002, "EPHEMERIS_TYPE": 0, "CLASSIFICATION_TYPE": "U", "NORAD_CAT_ID": 58645, "ELEMENT_SET_NO": 999, "REV_AT_EPOCH": 10758, "BSTAR": 0.00032052, "MEAN_MOTION_DOT": 7.797e-05, "MEAN_MOTION_DDOT": 0}, "tle": {"line1": "1 58645U 23205A   25336.83589188  .00007797  00000+0  32052-3 0  9993", "line2": "2 58645  97.3614 356.6349 0008912 349.1041  11.0002 15.24406682107581"}}, "geometry": {"type": "Point", "coordinates": [172.0289410307554, -33.809016992970356]}}, {"type": "Feature", "properties": {"norad_id": 58646, "name": "TIANMU-1 12", "group": "weather", "lat": 68.59744355241574, "lon": -22.451998940979603, "alt_km": 486.6637184285537, "timestamp": "2025-12-03T04:52:29.284400+00:00", "meta": {"OBJECT_NAME": "TIANMU-1 12", "OBJECT_ID": "2023-205B", "EPOCH": "2025-12-02T20:41:32.210304", "MEAN_MOTION": 15.2432018, "ECCENTRICITY": 0.0006698, "INCLINATION": 97.3602, "RA_OF_ASC_NODE": 356.4694, "ARG_OF_PERICENTER": 334.8765, "MEAN_ANOMALY": 25.2145, "EPHEMERIS_TYPE": 0, "CLASSIFICATION_TYPE": "U", "NORAD_CAT_ID": 58646, "ELEMENT_SET_NO": 999, "REV_AT_EPOCH": 10757, "BSTAR": 0.00035644, "MEAN_MOTION_DOT": 8.653e-05, "MEAN_MOTION_DDOT": 0}, "tle": {"line1": "1 58646U 23205B   25336.86217836  .00008653  00000+0  35644-3 0  9997", "line2": "2 58646  97.3602 356.4694 0006698 334.8765  25.2145 15.24320180107575"}}, "geometry": {"type": "Point", "coordinates": [-22.451998940979603, 68.59744355241574]}}, {"type": "Feature", "properties": {"norad_id": 58647, "name": "TIANMU-1 13", "group": "weather", "lat": -63.9472210314642, "lon": 161.66369395123888, "alt_km": 498.19478169690046, "timestamp": "2025-12-03T04:52:29.284411+00:00", "meta": {"OBJECT_NAME": "TIANMU-1 13", "OBJECT_ID": "2023-205C", "EPOCH": "2025-12-02T21:30:04.406112", "MEAN_MOTION": 15.24326964, "ECCENTRICITY": 0.0006439, "INCLINATION": 97.3629, "RA_OF_ASC_NODE": 356.6994, "ARG_OF_PERICENTER": 311.5004, "MEAN_ANOMALY": 48.568, "EPHEMERIS_TYPE": 0, "CLASSIFICATION_TYPE": "U", "NORAD_CAT_ID": 58647, "ELEMENT_SET_NO": 999, "REV_AT_EPOCH": 10757, "BSTAR": 0.00034885, "MEAN_MOTION_DOT": 8.468e-05, "MEAN_MOTION_DDOT": 0}, "tle": {"line1": "1 58647U 23205C   25336.89588433  .00008468  00000+0  34885-3 0  9995", "line2": "2 58647  97.3629 356.6994 0006439 311.5004  48.5680 15.24326964107579"}}, "geometry": {"type": "Point", "coordinates": [161.66369395123888, -63.9472210314642]}}, {"type": "Feature", "properties": {"norad_id": 58648, "name": "TIANMU-1 14", "group": "weather", "lat": -23.336312680046145, "lon": -0.4461479058007621, "alt_km": 493.7146094771397, "timestamp": "2025-12-03T04:52:29.284421+00:00", "meta": {"OBJECT_NAME": "TIANMU-1 14", "OBJECT_ID": "2023-205D", "EPOCH": "2025-12-02T21:06:01.018080", "MEAN_MOTION": 15.2431148, "ECCENTRICITY": 0.000735, "INCLINATION": 97.3561, "RA_OF_ASC_NODE": 356.0409, "ARG_OF_PERICENTER": 315.635, "MEAN_ANOMALY": 44.4297, "EPHEMERIS_TYPE": 0, "CLASSIFICATION_TYPE": "U", "NORAD_CAT_ID": 58648, "ELEMENT_SET_NO": 999, "REV_AT_EPOCH": 10757, "BSTAR": 0.00036357, "MEAN_MOTION_DOT": 8.826e-05, "MEAN_MOTION_DDOT": 0}, "tle": {"line1": "1 58648U 23205D   25336.87917845  .00008826  00000+0  36357-3 0  9991", "line2": "2 58648  97.3561 356.0409 0007350 315.6350  44.4297 15.24311480107578"}}, "geometry": {"type": "Point", "coordinates": [-0.4461479058007621, -23.336312680046145]}}, {"type": "Feature", "properties": {"norad_id": 58660, "name": "TIANMU-1 19", "group": "weather", "lat": 60.75364176407293, "lon": -78.24444423108643, "alt_km": 480.04215429818305, "timestamp": "2025-12-03T04:52:29.284431+00:00", "meta": {"OBJECT_NAME": "TIANMU-1 19", "OBJECT_ID": "2023-208A", "EPOCH": "2025-12-02T20:29:52.041120", "MEAN_MOTION": 15.27560905, "ECCENTRICITY": 0.0004125, "INCLINATION": 97.4391, "RA_OF_ASC_NODE": 87.913, "ARG_OF_PERICENTER": 297.0474, "MEAN_ANOMALY": 63.0344, "EPHEMERIS_TYPE": 0, "CLASSIFICATION_TYPE": "U", "NORAD_CAT_ID": 58660, "ELEMENT_SET_NO": 999, "REV_AT_EPOCH": 10731, "BSTAR": 0.00046435, "MEAN_MOTION_DOT": 0.00012453, "MEAN_MOTION_DDOT": 0}, "tle": {"line1": "1 58660U 23208A   25336.85407455  .00012453  00000+0  46435-3 0  9996", "line2": "2 58660  97.4391  87.9130 0004125 297.0474  63.0344 15.27560905107315"}}, "geometry": {"type": "Point", "coordinates": [-78.24444423108643, 60.75364176407293]}}, {"type": "Feature", "properties": {"norad_id": 58661, "name": "TIANMU-1 20", "group": "weather", "lat": 27.956971873518086, "lon": -87.32736913011914, "alt_km": 482.40672584940694, "timestamp": "2025-12-03T04:52:29.284442+00:00", "meta": {"OBJECT_NAME": "TIANMU-1 20", "OBJECT_ID": "2023-208B", "EPOCH": "2025-12-02T20:21:30.592800", "MEAN_MOTION": 15.2875401, "ECCENTRICITY": 0.0006493, "INCLINATION": 97.4329, "RA_OF_ASC_NODE": 88.3451, "ARG_OF_PERICENTER": 307.0604, "MEAN_ANOMALY": 53.0041, "EPHEMERIS_TYPE": 0, "CLASSIFICATION_TYPE": "U", "NORAD_CAT_ID": 58661, "ELEMENT_SET_NO": 999, "REV_AT_EPOCH": 10738, "BSTAR": 0.00044172, "MEAN_MOTION_DOT": 0.00012286, "MEAN_MOTION_DDOT": 0}, "tle": {"line1": "1 58661U 23208B   25336.84827075  .00012286  00000+0  44172-3 0  9990", "line2": "2 58661  97.4329  88.3451 0006493 307.0604  53.0041 15.28754010107388"}}, "geometry": {"type": "Point", "coordinates": [-87.32736913011914, 27.956971873518086]}}]}